{
  "norad_id": 58441,
  "name": "STARLINK-30942",
  "history": [
    {
      "epoch": "2026-03-28T21:02:19.486752",
      "apogee_km": 484.5732876240836,
      "perigee_km": 483.30311750408873,
      "latitude_deg": -27.0802848628285,
      "longitude_deg": 108.25498528010212,
      "semi_major_axis_km": 6862.075202564086,
      "eccentricity": 9.255e-05,
      "inclination_deg": 43.0024,
      "raan_deg": 292.8397,
      "arg_perigee_deg": 274.5632,
      "mean_anomaly_deg": 85.5114,
      "mean_motion_rev_day": 15.27283121
    }
  ]
}